[{"OBJECT_NAME":"EXO-0","OBJECT_ID":"2023-174DK","EPOCH":"2026-03-09T17:03:04.419648","MEAN_MOTION":15.32821991,"ECCENTRICITY":0.00098779,"INCLINATION":97.3864,"RA_OF_ASC_NODE":148.9039,"ARG_OF_PERICENTER":157.1125,"MEAN_ANOMALY":203.0559,"EPHEMERIS_TYPE":0,"CLASSIFICATION_TYPE":"U","NORAD_CAT_ID":59175,"ELEMENT_SET_NO":999,"REV_AT_EPOCH":12979,"BSTAR":0.00036716083,"MEAN_MOTION_DOT":0.00011582,"MEAN_MOTION_DDOT":0},{"OBJECT_NAME":"STARLINK-35852","OBJECT_ID":"2025-283M","EPOCH":"2026-03-09T07:07:03.541728","MEAN_MOTION":15.30180185,"ECCENTRICITY":0.00013794,"INCLINATION":53.1614,"RA_OF_ASC_NODE":26.0141,"ARG_OF_PERICENTER":72.4217,"MEAN_ANOMALY":287.6935,"EPHEMERIS_TYPE":0,"CLASSIFICATION_TYPE":"U","NORAD_CAT_ID":66889,"ELEMENT_SET_NO":999,"REV_AT_EPOCH":1578,"BSTAR":0.0006888838,"MEAN_MOTION_DOT":0.00020086,"MEAN_MOTION_DDOT":0}]
